{"type": "FeatureCollection", "features": [ {"type": "Feature", "properties": {"norad_id": 39620, "name": "COSMOS 2492 (754)", "group": "gnss", "lat": -35.95181824067515, "lon": -59.27550780276564, "alt_km": 19098.295015443844, "timestamp": "2025-12-16T17:51:11.173768+00:00", "meta": {"OBJECT_NAME": "COSMOS 2492 (754)", "OBJECT_ID": "2014-012A", "EPOCH": "2025-12-16T07:50:46.447872", "MEAN_MOTION": 2.13103282, "ECCENTRICITY": 0.0014254, "INCLINATION": 65.4058, "RA_OF_ASC_NODE": 320.149, "ARG_OF_PERICENTER": 313.159, "MEAN_ANOMALY": 46.7158, "EPHEMERIS_TYPE": 0, "CLASSIFICATION_TYPE": "U", "NORAD_CAT_ID": 39620, "ELEMENT_SET_NO": 999, "REV_AT_EPOCH": 9134, "BSTAR": 0, "MEAN_MOTION_DOT": -6.8e-07, "MEAN_MOTION_DDOT": 0}, "tle": {"line1": "1 39620U 14012A   25350.32692648 -.00000068  00000+0  00000+0 0  9996", "line2": "2 39620  65.4058 320.1490 0014254 313.1590  46.7158  2.13103282 91347"}}, "geometry": {"type": "Point", "coordinates": [-59.27550780276564, -35.95181824067515]}}, {"type": "Feature", "properties": {"norad_id": 39635, "name": "IRNSS-1B", "group": "gnss", "lat": 7.140307058185491, "lon": 50.652245607819616, "alt_km": 35744.753333527784, "timestamp": "2025-12-16T17:51:11.173779+00:00", "meta": {"OBJECT_NAME": "IRNSS-1B", "OBJECT_ID": "2014-017A", "EPOCH": "2025-12-11T18:54:44.030304", "MEAN_MOTION": 1.00285038, "ECCENTRICITY": 0.00181492, "INCLINATION": 29.2271, "RA_OF_ASC_NODE": 243.6214, "ARG_OF_PERICENTER": 227.0185, "MEAN_ANOMALY": 309.1991, "EPHEMERIS_TYPE": 0, "CLASSIFICATION_TYPE": "U", "NORAD_CAT_ID": 39635, "ELEMENT_SET_NO": 999, "REV_AT_EPOCH": 4291, "BSTAR": 0, "MEAN_MOTION_DOT": 1.07e-06, "MEAN_MOTION_DDOT": 0}, "tle": {"line1": "1 39635U 14017A   25345.78800961  .00000107  00000+0  00000+0 0  9993", "line2": "2 39635  29.2271 243.6214 0018149 227.0185 309.1991  1.00285038 42916"}}, "geometry": {"type": "Point", "coordinates": [50.652245607819616, 7.140307058185491]}}, {"type": "Feature", "properties": {"norad_id": 39727, "name": "LUCH 5V (SDCM/PRN 141)", "group": "gnss", "lat": 1.3617735849224264, "lon": 88.07852662198782, "alt_km": 35805.05936201643, "timestamp": "2025-12-16T17:51:11.173792+00:00", "meta": {"OBJECT_NAME": "LUCH 5V (SDCM/PRN 141)", "OBJECT_ID": "2014-023A", "EPOCH": "2025-12-15T18:58:29.535168", "MEAN_MOTION": 1.00268411, "ECCENTRICITY": 0.00043859, "INCLINATION": 4.677, "RA_OF_ASC_NODE": 71.5106, "ARG_OF_PERICENTER": 209.4827, "MEAN_ANOMALY": 183.0334, "EPHEMERIS_TYPE": 0, "CLASSIFICATION_TYPE": "U", "NORAD_CAT_ID": 39727, "ELEMENT_SET_NO": 999, "REV_AT_EPOCH": 4252, "BSTAR": 0, "MEAN_MOTION_DOT": -2.49e-06, "MEAN_MOTION_DDOT": 0}, "tle": {"line1": "1 39727U 14023A   25349.79061962 -.00000249  00000+0  00000+0 0  9995", "line2": "2 39727   4.6770  71.5106 0004385 209.4827 183.0334  1.00268411 42524"}}, "geometry": {"type": "Point", "coordinates": [88.07852662198782, 1.3617735849224264]}}, {"type": "Feature", "properties": {"norad_id": 39741, "name": "GPS BIIF-6  (PRN 06)", "group": "gnss", "lat": -6.7393009761579865, "lon": 163.08806006722548, "alt_km": 20251.364698991594, "timestamp": "2025-12-16T17:51:11.173806+00:00", "meta": {"OBJECT_NAME": "GPS BIIF-6  (PRN 06)", "OBJECT_ID": "2014-026A", "EPOCH": "2025-12-15T11:38:58.689600", "MEAN_MOTION": 2.00561238, "ECCENTRICITY": 0.00392615, "INCLINATION": 56.5825, "RA_OF_ASC_NODE": 338.6695, "ARG_OF_PERICENTER": 318.8449, "MEAN_ANOMALY": 40.8708, "EPHEMERIS_TYPE": 0, "CLASSIFICATION_TYPE": "U", "NORAD_CAT_ID": 39741, "ELEMENT_SET_NO": 999, "REV_AT_EPOCH": 8485, "BSTAR": 0, "MEAN_MOTION_DOT": -8.7e-07, "MEAN_MOTION_DDOT": 0}, "tle": {"line1": "1 39741U 14026A   25349.48540150 -.00000087  00000+0  00000+0 0  9991", "line2": "2 39741  56.5825 338.6695 0039261 318.8449  40.8708  2.00561238 84854"}}, "geometry": {"type": "Point", "coordinates": [163.08806006722548, -6.7393009761579865]}}, {"type": "Feature", "properties": {"norad_id": 40001, "name": "COSMOS 2500 (755)", "group": "gnss", "lat": -7.046416895827719, "lon": 143.1369425094108, "alt_km": 19113.316186694574, "timestamp": "2025-12-16T17:51:11.173818+00:00", "meta": {"OBJECT_NAME": "COSMOS 2500 (755)", "OBJECT_ID": "2014-032A", "EPOCH": "2025-12-15T13:27:13.709376", "MEAN_MOTION": 2.1310598, "ECCENTRICITY": 0.00081492, "INCLINATION": 65.3414, "RA_OF_ASC_NODE": 319.9362, "ARG_OF_PERICENTER": 219.0671, "MEAN_ANOMALY": 140.8696, "EPHEMERIS_TYPE": 0, "CLASSIFICATION_TYPE": "U", "NORAD_CAT_ID": 40001, "ELEMENT_SET_NO": 999, "REV_AT_EPOCH": 8954, "BSTAR": 0, "MEAN_MOTION_DOT": -6.8e-07, "MEAN_MOTION_DDOT": 0}, "tle": {"line1": "1 40001U 14032A   25349.56057534 -.00000068  00000+0  00000+0 0  9996", "line2": "2 40001  65.3414 319.9362 0008149 219.0671 140.8696  2.13105980 89540"}}, "geometry": {"type": "Point", "coordinates": [143.1369425094108, -7.046416895827719]}}, {"type": "Feature", "properties": {"norad_id": 40105, "name": "GPS BIIF-7  (PRN 09)", "group": "gnss", "lat": 41.61936613874326, "lon": -122.32205499231034, "alt_km": 20090.077351164382, "timestamp": "2025-12-16T17:51:11.173829+00:00", "meta": {"OBJECT_NAME": "GPS BIIF-7  (PRN 09)", "OBJECT_ID": "2014-045A", "EPOCH": "2025-12-12T01:59:18.865536", "MEAN_MOTION": 2.00572516, "ECCENTRICITY": 0.00326941, "INCLINATION": 55.2287, "RA_OF_ASC_NODE": 95.9251, "ARG_OF_PERICENTER": 119.8618, "MEAN_ANOMALY": 240.4523, "EPHEMERIS_TYPE": 0, "CLASSIFICATION_TYPE": "U", "NORAD_CAT_ID": 40105, "ELEMENT_SET_NO": 999, "REV_AT_EPOCH": 8232, "BSTAR": 0, "MEAN_MOTION_DOT": -9e-08, "MEAN_MOTION_DDOT": 0}, "tle": {"line1": "1 40105U 14045A   25346.08285724 -.00000009  00000+0  00000+0 0  9998", "line2": "2 40105  55.2287  95.9251 0032694 119.8618 240.4523  2.00572516 82323"}}, "geometry": {"type": "Point", "coordinates": [-122.32205499231034, 41.61936613874326]}}, {"type": "Feature", "properties": {"norad_id": 40128, "name": "GSAT0201 (GALILEO 5)", "group": "gnss", "lat": 16.036863161365936, "lon": -64.69843144121069, "alt_km": 25421.11291015123, "timestamp": "2025-12-16T17:51:11.173841+00:00", "meta": {"OBJECT_NAME": "GSAT0201 (GALILEO 5)", "OBJECT_ID": "2014-050A", "EPOCH": "2025-12-14T00:08:14.916480", "MEAN_MOTION": 1.85519648, "ECCENTRICITY": 0.16480052, "INCLINATION": 49.0753, "RA_OF_ASC_NODE": 281.012, "ARG_OF_PERICENTER": 172.3262, "MEAN_ANOMALY": 190.5827, "EPHEMERIS_TYPE": 0, "CLASSIFICATION_TYPE": "U", "NORAD_CAT_ID": 40128, "ELEMENT_SET_NO": 999, "REV_AT_EPOCH": 7488, "BSTAR": 0, "MEAN_MOTION_DOT": -9.9e-07, "MEAN_MOTION_DDOT": 0}, "tle": {"line1": "1 40128U 14050A   25348.00572820 -.00000099  00000+0  00000+0 0  9998", "line2": "2 40128  49.0753 281.0120 1648005 172.3262 190.5827  1.85519648 74882"}}, "geometry": {"type": "Point", "coordinates": [-64.69843144121069, 16.036863161365936]}}, {"type": "Feature", "properties": {"norad_id": 40129, "name": "GSAT0202 (GALILEO 6)", "group": "gnss", "lat": -38.95439347026135, "lon": 144.3952973894571, "alt_km": 18952.233393795523, "timestamp": "2025-12-16T17:51:11.173853+00:00", "meta": {"OBJECT_NAME": "GSAT0202 (GALILEO 6)", "OBJECT_ID": "2014-050B", "EPOCH": "2025-12-14T06:17:14.023104", "MEAN_MOTION": 1.85520414, "ECCENTRICITY": 0.16487132, "INCLINATION": 49.0906, "RA_OF_ASC_NODE": 280.0852, "ARG_OF_PERICENTER": 173.0839, "MEAN_ANOMALY": 189.5459, "EPHEMERIS_TYPE": 0, "CLASSIFICATION_TYPE": "U", "NORAD_CAT_ID": 40129, "ELEMENT_SET_NO": 999, "REV_AT_EPOCH": 7705, "BSTAR": 0, "MEAN_MOTION_DOT": -9.7e-07, "MEAN_MOTION_DDOT": 0}, "tle": {"line1": "1 40129U 14050B   25348.26196786 -.00000097  00000+0  00000+0 0  9998", "line2": "2 40129  49.0906 280.0852 1648713 173.0839 189.5459  1.85520414 77052"}}, "geometry": {"type": "Point", "coordinates": [144.3952973894571, -38.95439347026135]}}, {"type": "Feature", "properties": {"norad_id": 40269, "name": "IRNSS-1C", "group": "gnss", "lat": -1.6621249043618656, "lon": 76.39707553628273, "alt_km": 35712.476933088976, "timestamp": "2025-12-16T17:51:11.173865+00:00", "meta": {"OBJECT_NAME": "IRNSS-1C", "OBJECT_ID": "2014-061A", "EPOCH": "2025-12-15T21:11:51.423648", "MEAN_MOTION": 1.00274689, "ECCENTRICITY": 0.00181129, "INCLINATION": 6.0492, "RA_OF_ASC_NODE": 92.5594, "ARG_OF_PERICENTER": 1.6311, "MEAN_ANOMALY": 31.5004, "EPHEMERIS_TYPE": 0, "CLASSIFICATION_TYPE": "U", "NORAD_CAT_ID": 40269, "ELEMENT_SET_NO": 999, "REV_AT_EPOCH": 4085, "BSTAR": 0, "MEAN_MOTION_DOT": -1.43e-06, "MEAN_MOTION_DDOT": 0}, "tle": {"line1": "1 40269U 14061A   25349.88323407 -.00000143  00000+0  00000+0 0  9998", "line2": "2 40269   6.0492  92.5594 0018112   1.6311  31.5004  1.00274689 40850"}}, "geometry": {"type": "Point", "coordinates": [76.39707553628273, -1.6621249043618656]}}, {"type": "Feature", "properties": {"norad_id": 40294, "name": "GPS BIIF-8  (PRN 03)", "group": "gnss", "lat": -28.54762939971574, "lon": -121.19013966679368, "alt_km": 20319.070087878634, "timestamp": "2025-12-16T17:51:11.173877+00:00", "meta": {"OBJECT_NAME": "GPS BIIF-8  (PRN 03)", "OBJECT_ID": "2014-068A", "EPOCH": "2025-12-15T10:49:04.415520", "MEAN_MOTION": 2.0056507, "ECCENTRICITY": 0.00607763, "INCLINATION": 56.8599, "RA_OF_ASC_NODE": 38.0411, "ARG_OF_PERICENTER": 69.1257, "MEAN_ANOMALY": 291.5793, "EPHEMERIS_TYPE": 0, "CLASSIFICATION_TYPE": "U", "NORAD_CAT_ID": 40294, "ELEMENT_SET_NO": 999, "REV_AT_EPOCH": 8152, "BSTAR": 0, "MEAN_MOTION_DOT": -8.8e-07, "MEAN_MOTION_DDOT": 0}, "tle": {"line1": "1 40294U 14068A   25349.45074555 -.00000088  00000+0  00000+0 0  9991", "line2": "2 40294  56.8599  38.0411 0060776  69.1257 291.5793  2.00565070 81523"}}, "geometry": {"type": "Point", "coordinates": [-121.19013966679368, -28.54762939971574]}}]}